{
  "type": "FeatureCollection",
  "features": [
    {
      "type": "Feature",
      "properties": {
        "_gpxType": "trk",
        "name": "Marble Canyon",
        "coordinateProperties": {}
      },
      "geometry": {
        "type": "LineString",
        "coordinates": [
          [
            -116.12296,
            51.18606,
            1472.25
          ],
          [
            -116.12298,
            51.18613,
            1472.98
          ],
          [
            -116.12303,
            51.18616,
            1474.21
          ],
          [
            -116.1231,
            51.18618,
            1475.02
          ],
          [
            -116.12317,
            51.1862,
            1475.69
          ],
          [
            -116.12325,
            51.1862,
            1475.78
          ],
          [
            -116.12332,
            51.18621,
            1476.19
          ],
          [
            -116.12336,
            51.18621,
            1476.2
          ],
          [
            -116.12342,
            51.1862,
            1475.89
          ],
          [
            -116.12348,
            51.18618,
            1475.37
          ],
          [
            -116.12355,
            51.18614,
            1474.47
          ],
          [
            -116.12359,
            51.18611,
            1473.93
          ],
          [
            -116.12361,
            51.1861,
            1474.04
          ],
          [
            -116.12373,
            51.18602,
            1474.33
          ],
          [
            -116.12379,
            51.18599,
            1474.44
          ],
          [
            -116.12384,
            51.18596,
            1474.54
          ],
          [
            -116.12392,
            51.18595,
            1474.1
          ],
          [
            -116.12398,
            51.18597,
            1473.04
          ],
          [
            -116.12402,
            51.186,
            1472.13
          ],
          [
            -116.12404,
            51.18602,
            1471.6
          ],
          [
            -116.12405,
            51.18603,
            1471.32
          ],
          [
            -116.12405,
            51.18603,
            1471.32
          ],
          [
            -116.12406,
            51.18603,
            1471.14
          ],
          [
            -116.1241,
            51.18607,
            1469.93
          ],
          [
            -116.12418,
            51.18614,
            1468.12
          ],
          [
            -116.12429,
            51.18624,
            1466.78
          ],
          [
            -116.12446,
            51.18636,
            1463.36
          ],
          [
            -116.12449,
            51.18638,
            1462.63
          ],
          [
            -116.12459,
            51.18644,
            1460.91
          ],
          [
            -116.12481,
            51.18655,
            1457.98
          ],
          [
            -116.12484,
            51.18656,
            1457.64
          ],
          [
            -116.12498,
            51.18659,
            1455.54
          ],
          [
            -116.12506,
            51.18661,
            1455.09
          ],
          [
            -116.12508,
            51.18662,
            1455.07
          ],
          [
            -116.12511,
            51.18664,
            1455.03
          ],
          [
            -116.12515,
            51.18667,
            1455.07
          ],
          [
            -116.1252,
            51.18669,
            1455.59
          ],
          [
            -116.12528,
            51.18672,
            1456.3
          ],
          [
            -116.12532,
            51.18675,
            1457.39
          ],
          [
            -116.12536,
            51.18676,
            1457.53
          ],
          [
            -116.12539,
            51.18678,
            1457.98
          ],
          [
            -116.12542,
            51.18682,
            1458.88
          ],
          [
            -116.12543,
            51.18683,
            1459.03
          ],
          [
            -116.12545,
            51.18685,
            1459.27
          ],
          [
            -116.12547,
            51.18689,
            1459.89
          ],
          [
            -116.12547,
            51.18691,
            1460.35
          ],
          [
            -116.12546,
            51.18694,
            1461.3
          ],
          [
            -116.12546,
            51.187,
            1463.27
          ],
          [
            -116.12552,
            51.1872,
            1468.86
          ],
          [
            -116.12552,
            51.18728,
            1471.02
          ],
          [
            -116.12549,
            51.18734,
            1472.85
          ],
          [
            -116.12547,
            51.18737,
            1473.77
          ],
          [
            -116.12545,
            51.18739,
            1474.44
          ],
          [
            -116.12544,
            51.1874,
            1474.76
          ],
          [
            -116.12543,
            51.1874,
            1474.87
          ],
          [
            -116.1254,
            51.1874,
            1475.2
          ],
          [
            -116.12536,
            51.18741,
            1475.82
          ],
          [
            -116.1253,
            51.18742,
            1476.62
          ],
          [
            -116.12528,
            51.18745,
            1477.26
          ],
          [
            -116.12526,
            51.18751,
            1478.17
          ],
          [
            -116.12524,
            51.18753,
            1478.48
          ],
          [
            -116.12506,
            51.18763,
            1478.87
          ],
          [
            -116.12504,
            51.18766,
            1478.91
          ],
          [
            -116.12504,
            51.18774,
            1479.36
          ],
          [
            -116.12503,
            51.18778,
            1479.46
          ],
          [
            -116.12495,
            51.18787,
            1479.85
          ],
          [
            -116.12491,
            51.18792,
            1480.42
          ],
          [
            -116.1249,
            51.18797,
            1481.32
          ],
          [
            -116.1249,
            51.18803,
            1482.5
          ],
          [
            -116.12491,
            51.18805,
            1482.89
          ],
          [
            -116.12499,
            51.18818,
            1483.96
          ],
          [
            -116.12502,
            51.18827,
            1484.58
          ],
          [
            -116.12502,
            51.1883,
            1484.78
          ],
          [
            -116.12504,
            51.18831,
            1484.86
          ],
          [
            -116.1251,
            51.18835,
            1485.06
          ],
          [
            -116.12512,
            51.18834,
            1485.02
          ],
          [
            -116.12516,
            51.18834,
            1485.01
          ],
          [
            -116.12523,
            51.18834,
            1484.99
          ],
          [
            -116.12528,
            51.18837,
            1484.88
          ],
          [
            -116.12535,
            51.18843,
            1484.9
          ],
          [
            -116.12545,
            51.18855,
            1484.01
          ],
          [
            -116.1255,
            51.18863,
            1482.98
          ],
          [
            -116.1255,
            51.18869,
            1482.29
          ],
          [
            -116.12552,
            51.18871,
            1481.89
          ],
          [
            -116.12563,
            51.18873,
            1481.48
          ],
          [
            -116.12566,
            51.18874,
            1481.37
          ],
          [
            -116.12567,
            51.18876,
            1481.02
          ],
          [
            -116.12567,
            51.18877,
            1480.83
          ],
          [
            -116.12566,
            51.18878,
            1480.63
          ],
          [
            -116.12556,
            51.18879,
            1480.43
          ],
          [
            -116.1254,
            51.18877,
            1482.55
          ],
          [
            -116.12536,
            51.18875,
            1483.11
          ],
          [
            -116.12535,
            51.18874,
            1483.26
          ],
          [
            -116.12532,
            51.18874,
            1483.57
          ],
          [
            -116.1253,
            51.18876,
            1483.75
          ],
          [
            -116.1253,
            51.18879,
            1483.71
          ],
          [
            -116.12531,
            51.1888,
            1483.57
          ],
          [
            -116.12548,
            51.18897,
            1480.65
          ],
          [
            -116.12556,
            51.18908,
            1479.65
          ],
          [
            -116.12563,
            51.18915,
            1479.17
          ],
          [
            -116.1257,
            51.18919,
            1479.02
          ],
          [
            -116.12577,
            51.18925,
            1479.62
          ],
          [
            -116.12585,
            51.18934,
            1480.62
          ],
          [
            -116.1259,
            51.1894,
            1481.27
          ],
          [
            -116.12597,
            51.18944,
            1480.98
          ],
          [
            -116.12599,
            51.18945,
            1480.92
          ],
          [
            -116.12603,
            51.18945,
            1480.35
          ],
          [
            -116.12608,
            51.18949,
            1480.92
          ],
          [
            -116.12616,
            51.18958,
            1482.87
          ],
          [
            -116.12621,
            51.18966,
            1484.72
          ],
          [
            -116.12625,
            51.18971,
            1485.65
          ],
          [
            -116.12628,
            51.18974,
            1486.18
          ],
          [
            -116.12635,
            51.18977,
            1486.26
          ],
          [
            -116.12641,
            51.1898,
            1486.8
          ],
          [
            -116.12648,
            51.18981,
            1487.16
          ],
          [
            -116.12656,
            51.18981,
            1487.16
          ],
          [
            -116.12661,
            51.18981,
            1487.16
          ],
          [
            -116.12676,
            51.18982,
            1487.94
          ],
          [
            -116.12683,
            51.18983,
            1488.5
          ],
          [
            -116.1269,
            51.18985,
            1489.19
          ],
          [
            -116.12697,
            51.18987,
            1489.88
          ],
          [
            -116.127,
            51.18987,
            1490.13
          ],
          [
            -116.12707,
            51.18989,
            1490.91
          ],
          [
            -116.12708,
            51.18989,
            1490.99
          ],
          [
            -116.12712,
            51.1899,
            1491.34
          ],
          [
            -116.12714,
            51.18991,
            1491.52
          ],
          [
            -116.12718,
            51.18991,
            1491.75
          ],
          [
            -116.12725,
            51.1899,
            1492.18
          ],
          [
            -116.12731,
            51.18988,
            1492.68
          ],
          [
            -116.12736,
            51.18985,
            1493.34
          ],
          [
            -116.12738,
            51.18984,
            1493.64
          ],
          [
            -116.12742,
            51.18982,
            1494.31
          ],
          [
            -116.12745,
            51.18978,
            1495.25
          ],
          [
            -116.12744,
            51.18974,
            1495.67
          ],
          [
            -116.1274,
            51.1897,
            1495.52
          ],
          [
            -116.12733,
            51.18968,
            1494.55
          ],
          [
            -116.12731,
            51.18968,
            1494.19
          ],
          [
            -116.1273,
            51.18968,
            1494.01
          ],
          [
            -116.12726,
            51.18968,
            1493.29
          ],
          [
            -116.12726,
            51.18968,
            1493.29
          ],
          [
            -116.12719,
            51.18971,
            1491.59
          ],
          [
            -116.12712,
            51.18972,
            1490.19
          ],
          [
            -116.12708,
            51.18971,
            1489.59
          ],
          [
            -116.12695,
            51.18969,
            1487.45
          ],
          [
            -116.12688,
            51.18969,
            1486.49
          ],
          [
            -116.12681,
            51.18967,
            1485.57
          ],
          [
            -116.12675,
            51.18965,
            1484.59
          ],
          [
            -116.12669,
            51.18962,
            1483.33
          ],
          [
            -116.12665,
            51.18961,
            1482.69
          ],
          [
            -116.12664,
            51.18961,
            1482.63
          ],
          [
            -116.12663,
            51.1896,
            1482.45
          ],
          [
            -116.12662,
            51.18959,
            1482.25
          ],
          [
            -116.12662,
            51.18959,
            1482.25
          ],
          [
            -116.12659,
            51.18958,
            1481.9
          ],
          [
            -116.12655,
            51.18955,
            1481.1
          ],
          [
            -116.12651,
            51.18953,
            1480.36
          ],
          [
            -116.12648,
            51.18952,
            1479.86
          ],
          [
            -116.12635,
            51.18942,
            1477.57
          ],
          [
            -116.12631,
            51.1894,
            1477.98
          ],
          [
            -116.12624,
            51.1894,
            1478.28
          ],
          [
            -116.12608,
            51.18944,
            1479.42
          ],
          [
            -116.12603,
            51.18945,
            1480.35
          ],
          [
            -116.12599,
            51.18945,
            1480.92
          ],
          [
            -116.12597,
            51.18944,
            1480.98
          ],
          [
            -116.1259,
            51.1894,
            1481.27
          ],
          [
            -116.12585,
            51.18934,
            1480.62
          ],
          [
            -116.12577,
            51.18925,
            1479.62
          ],
          [
            -116.1257,
            51.18919,
            1479.02
          ],
          [
            -116.12563,
            51.18915,
            1479.17
          ],
          [
            -116.12556,
            51.18908,
            1479.65
          ],
          [
            -116.12548,
            51.18897,
            1480.65
          ],
          [
            -116.12531,
            51.1888,
            1483.57
          ],
          [
            -116.1253,
            51.18879,
            1483.71
          ],
          [
            -116.1253,
            51.18876,
            1483.75
          ],
          [
            -116.12532,
            51.18874,
            1483.57
          ],
          [
            -116.12529,
            51.18873,
            1483.88
          ],
          [
            -116.12526,
            51.18868,
            1484.24
          ],
          [
            -116.12525,
            51.18865,
            1484.34
          ],
          [
            -116.12523,
            51.18861,
            1484.52
          ],
          [
            -116.1252,
            51.18857,
            1484.86
          ],
          [
            -116.12518,
            51.18854,
            1485.04
          ],
          [
            -116.12514,
            51.18848,
            1485.26
          ],
          [
            -116.12511,
            51.18844,
            1485.31
          ],
          [
            -116.12509,
            51.18842,
            1485.32
          ],
          [
            -116.12506,
            51.18839,
            1485.28
          ],
          [
            -116.12504,
            51.18834,
            1485.04
          ],
          [
            -116.12504,
            51.18833,
            1484.98
          ],
          [
            -116.12504,
            51.18831,
            1484.86
          ],
          [
            -116.12502,
            51.1883,
            1484.78
          ],
          [
            -116.12502,
            51.18827,
            1484.58
          ],
          [
            -116.12499,
            51.18818,
            1483.96
          ],
          [
            -116.12491,
            51.18805,
            1482.89
          ],
          [
            -116.1249,
            51.18803,
            1482.5
          ],
          [
            -116.1249,
            51.18797,
            1481.32
          ],
          [
            -116.12491,
            51.18792,
            1480.42
          ],
          [
            -116.12495,
            51.18787,
            1479.85
          ],
          [
            -116.12503,
            51.18778,
            1479.46
          ],
          [
            -116.12504,
            51.18774,
            1479.36
          ],
          [
            -116.12504,
            51.18766,
            1478.91
          ],
          [
            -116.12506,
            51.18763,
            1478.87
          ],
          [
            -116.12524,
            51.18753,
            1478.48
          ],
          [
            -116.12526,
            51.18751,
            1478.17
          ],
          [
            -116.12528,
            51.18745,
            1477.26
          ],
          [
            -116.1253,
            51.18742,
            1476.62
          ],
          [
            -116.12536,
            51.18741,
            1475.82
          ],
          [
            -116.1254,
            51.1874,
            1475.2
          ],
          [
            -116.12543,
            51.1874,
            1474.87
          ],
          [
            -116.12544,
            51.1874,
            1474.76
          ],
          [
            -116.12545,
            51.18739,
            1474.44
          ],
          [
            -116.12547,
            51.18737,
            1473.77
          ],
          [
            -116.12549,
            51.18734,
            1472.85
          ],
          [
            -116.12552,
            51.18728,
            1471.02
          ],
          [
            -116.12552,
            51.1872,
            1468.86
          ],
          [
            -116.12546,
            51.187,
            1463.27
          ],
          [
            -116.12546,
            51.18694,
            1461.3
          ],
          [
            -116.12547,
            51.18691,
            1460.35
          ],
          [
            -116.12547,
            51.18689,
            1459.89
          ],
          [
            -116.12545,
            51.18685,
            1459.27
          ],
          [
            -116.12543,
            51.18683,
            1459.03
          ],
          [
            -116.12542,
            51.18682,
            1458.88
          ],
          [
            -116.12539,
            51.18678,
            1457.98
          ],
          [
            -116.12536,
            51.18676,
            1457.53
          ],
          [
            -116.12532,
            51.18675,
            1457.39
          ],
          [
            -116.12528,
            51.18672,
            1456.3
          ],
          [
            -116.1252,
            51.18669,
            1455.59
          ],
          [
            -116.12515,
            51.18667,
            1455.07
          ],
          [
            -116.12511,
            51.18664,
            1455.03
          ],
          [
            -116.12508,
            51.18662,
            1455.07
          ],
          [
            -116.12506,
            51.18661,
            1455.09
          ],
          [
            -116.12498,
            51.18659,
            1455.54
          ],
          [
            -116.12484,
            51.18656,
            1457.64
          ],
          [
            -116.12481,
            51.18655,
            1457.98
          ],
          [
            -116.12459,
            51.18644,
            1460.91
          ],
          [
            -116.12449,
            51.18638,
            1462.63
          ],
          [
            -116.12446,
            51.18636,
            1463.36
          ],
          [
            -116.12429,
            51.18624,
            1466.78
          ],
          [
            -116.12418,
            51.18614,
            1468.12
          ],
          [
            -116.1241,
            51.18607,
            1469.93
          ],
          [
            -116.12406,
            51.18603,
            1471.14
          ],
          [
            -116.12405,
            51.18603,
            1471.32
          ],
          [
            -116.12405,
            51.18603,
            1471.32
          ],
          [
            -116.12404,
            51.18602,
            1471.6
          ],
          [
            -116.12402,
            51.186,
            1472.13
          ],
          [
            -116.12398,
            51.18597,
            1473.04
          ],
          [
            -116.12392,
            51.18595,
            1474.1
          ],
          [
            -116.12384,
            51.18596,
            1474.54
          ],
          [
            -116.12379,
            51.18599,
            1474.44
          ],
          [
            -116.12373,
            51.18602,
            1474.33
          ],
          [
            -116.12361,
            51.1861,
            1474.04
          ],
          [
            -116.12359,
            51.18611,
            1473.93
          ],
          [
            -116.12355,
            51.18614,
            1474.47
          ],
          [
            -116.12348,
            51.18618,
            1475.37
          ],
          [
            -116.12342,
            51.1862,
            1475.89
          ],
          [
            -116.12336,
            51.18621,
            1476.2
          ],
          [
            -116.12332,
            51.18621,
            1476.19
          ],
          [
            -116.12325,
            51.1862,
            1475.78
          ],
          [
            -116.12317,
            51.1862,
            1475.69
          ],
          [
            -116.1231,
            51.18618,
            1475.02
          ],
          [
            -116.12303,
            51.18616,
            1474.21
          ],
          [
            -116.12298,
            51.18613,
            1472.98
          ],
          [
            -116.12296,
            51.18606,
            1472.25
          ]
        ]
      }
    }
  ]
}