{
  "type": "FeatureCollection",
  "features": [
    {
      "type": "Feature",
      "properties": {
        "_gpxType": "trk",
        "name": "Emerald Lake Loop",
        "coordinateProperties": {}
      },
      "geometry": {
        "type": "LineString",
        "coordinates": [
          [
            -116.54149,
            51.43938,
            1296.33
          ],
          [
            -116.54138,
            51.43944,
            1298.06
          ],
          [
            -116.54121,
            51.43954,
            1299.59
          ],
          [
            -116.54101,
            51.43965,
            1299.8
          ],
          [
            -116.54065,
            51.43981,
            1298.86
          ],
          [
            -116.54043,
            51.43991,
            1300.1
          ],
          [
            -116.54032,
            51.43996,
            1300.8
          ],
          [
            -116.54027,
            51.43999,
            1301
          ],
          [
            -116.54021,
            51.44001,
            1301.21
          ],
          [
            -116.54012,
            51.44004,
            1301.97
          ],
          [
            -116.54004,
            51.44005,
            1302.36
          ],
          [
            -116.53989,
            51.44009,
            1303.85
          ],
          [
            -116.53978,
            51.44013,
            1305.49
          ],
          [
            -116.53965,
            51.4402,
            1308.09
          ],
          [
            -116.53954,
            51.44026,
            1309.79
          ],
          [
            -116.53948,
            51.44032,
            1310.13
          ],
          [
            -116.53945,
            51.44037,
            1310.02
          ],
          [
            -116.53942,
            51.44039,
            1310.02
          ],
          [
            -116.53939,
            51.4404,
            1310.06
          ],
          [
            -116.53934,
            51.4404,
            1310.12
          ],
          [
            -116.53932,
            51.44041,
            1310.19
          ],
          [
            -116.5393,
            51.4404,
            1310.17
          ],
          [
            -116.53929,
            51.4404,
            1310.18
          ],
          [
            -116.53926,
            51.4404,
            1310.21
          ],
          [
            -116.53924,
            51.44041,
            1310.32
          ],
          [
            -116.53918,
            51.44036,
            1309.89
          ],
          [
            -116.5391,
            51.44025,
            1308.11
          ],
          [
            -116.53898,
            51.44027,
            1308.17
          ],
          [
            -116.5388,
            51.44024,
            1306.81
          ],
          [
            -116.53869,
            51.4402,
            1305.77
          ],
          [
            -116.53845,
            51.44007,
            1304.79
          ],
          [
            -116.53831,
            51.43998,
            1305.01
          ],
          [
            -116.53823,
            51.43991,
            1304.73
          ],
          [
            -116.53821,
            51.43989,
            1304.57
          ],
          [
            -116.53818,
            51.43987,
            1304.39
          ],
          [
            -116.53813,
            51.43984,
            1304.05
          ],
          [
            -116.53804,
            51.4398,
            1303.44
          ],
          [
            -116.5379,
            51.43976,
            1303.16
          ],
          [
            -116.53768,
            51.43968,
            1303.55
          ],
          [
            -116.53765,
            51.43968,
            1303.62
          ],
          [
            -116.53762,
            51.43967,
            1303.73
          ],
          [
            -116.53755,
            51.43966,
            1303.9
          ],
          [
            -116.5375,
            51.43965,
            1304
          ],
          [
            -116.53746,
            51.43964,
            1304.2
          ],
          [
            -116.53742,
            51.43963,
            1304.38
          ],
          [
            -116.53732,
            51.43962,
            1304.82
          ],
          [
            -116.53724,
            51.43959,
            1304.98
          ],
          [
            -116.5371,
            51.43956,
            1306.26
          ],
          [
            -116.537,
            51.43954,
            1307.11
          ],
          [
            -116.53695,
            51.43953,
            1307.48
          ],
          [
            -116.53694,
            51.43953,
            1307.63
          ],
          [
            -116.53693,
            51.43953,
            1307.82
          ],
          [
            -116.53692,
            51.43953,
            1308.01
          ],
          [
            -116.5368,
            51.43948,
            1309.63
          ],
          [
            -116.53672,
            51.43946,
            1311.04
          ],
          [
            -116.53664,
            51.43943,
            1312.13
          ],
          [
            -116.53651,
            51.43939,
            1313.39
          ],
          [
            -116.53638,
            51.43936,
            1314.9
          ],
          [
            -116.53631,
            51.43934,
            1315.56
          ],
          [
            -116.5363,
            51.43934,
            1315.7
          ],
          [
            -116.53628,
            51.43933,
            1315.85
          ],
          [
            -116.53627,
            51.43933,
            1315.99
          ],
          [
            -116.53623,
            51.43932,
            1316.44
          ],
          [
            -116.53618,
            51.43931,
            1317.05
          ],
          [
            -116.5361,
            51.43928,
            1317.95
          ],
          [
            -116.53602,
            51.43924,
            1318.6
          ],
          [
            -116.5359,
            51.43918,
            1319.41
          ],
          [
            -116.53584,
            51.43913,
            1319.53
          ],
          [
            -116.53578,
            51.4391,
            1319.32
          ],
          [
            -116.53574,
            51.43909,
            1319.3
          ],
          [
            -116.53571,
            51.43907,
            1319.28
          ],
          [
            -116.53571,
            51.43907,
            1319.28
          ],
          [
            -116.5357,
            51.43906,
            1319.29
          ],
          [
            -116.53566,
            51.43904,
            1319.43
          ],
          [
            -116.5356,
            51.43902,
            1319.79
          ],
          [
            -116.53548,
            51.439,
            1320.31
          ],
          [
            -116.53541,
            51.43897,
            1320.85
          ],
          [
            -116.53534,
            51.43895,
            1321.43
          ],
          [
            -116.53512,
            51.43886,
            1323.52
          ],
          [
            -116.53498,
            51.43877,
            1323.88
          ],
          [
            -116.53493,
            51.43872,
            1323.7
          ],
          [
            -116.53479,
            51.4386,
            1323.99
          ],
          [
            -116.53472,
            51.43853,
            1324
          ],
          [
            -116.5347,
            51.4385,
            1323.94
          ],
          [
            -116.53469,
            51.43849,
            1323.9
          ],
          [
            -116.53467,
            51.43848,
            1323.82
          ],
          [
            -116.53464,
            51.43845,
            1323.66
          ],
          [
            -116.53457,
            51.43841,
            1323.21
          ],
          [
            -116.53447,
            51.43837,
            1322.42
          ],
          [
            -116.53443,
            51.43836,
            1322.29
          ],
          [
            -116.53435,
            51.43836,
            1322.81
          ],
          [
            -116.53422,
            51.43834,
            1323.63
          ],
          [
            -116.53416,
            51.43832,
            1324.24
          ],
          [
            -116.53406,
            51.43829,
            1324.66
          ],
          [
            -116.53398,
            51.43826,
            1324.97
          ],
          [
            -116.5339,
            51.43823,
            1325.15
          ],
          [
            -116.53366,
            51.43811,
            1323.44
          ],
          [
            -116.53359,
            51.43808,
            1322.67
          ],
          [
            -116.53353,
            51.43804,
            1322.24
          ],
          [
            -116.53346,
            51.438,
            1321.77
          ],
          [
            -116.53341,
            51.43796,
            1321.52
          ],
          [
            -116.53334,
            51.4379,
            1321.19
          ],
          [
            -116.53331,
            51.43788,
            1321.07
          ],
          [
            -116.53324,
            51.43786,
            1320.64
          ],
          [
            -116.53312,
            51.43787,
            1319.55
          ],
          [
            -116.53303,
            51.43787,
            1318.54
          ],
          [
            -116.53291,
            51.43785,
            1316.6
          ],
          [
            -116.53287,
            51.43785,
            1315.88
          ],
          [
            -116.53284,
            51.43785,
            1315.34
          ],
          [
            -116.53263,
            51.4378,
            1311.36
          ],
          [
            -116.53257,
            51.4378,
            1309.97
          ],
          [
            -116.5324,
            51.43776,
            1305.73
          ],
          [
            -116.53232,
            51.43772,
            1304.42
          ],
          [
            -116.53225,
            51.43769,
            1303.37
          ],
          [
            -116.53223,
            51.43767,
            1303.69
          ],
          [
            -116.53219,
            51.43764,
            1304.42
          ],
          [
            -116.5321,
            51.43756,
            1306.37
          ],
          [
            -116.53197,
            51.43744,
            1306.94
          ],
          [
            -116.53181,
            51.43734,
            1307.41
          ],
          [
            -116.53173,
            51.43731,
            1307.28
          ],
          [
            -116.53154,
            51.43723,
            1306.46
          ],
          [
            -116.53144,
            51.43718,
            1306.71
          ],
          [
            -116.53126,
            51.43711,
            1307.59
          ],
          [
            -116.53117,
            51.43708,
            1308.35
          ],
          [
            -116.53114,
            51.43707,
            1308.66
          ],
          [
            -116.53108,
            51.43705,
            1309.51
          ],
          [
            -116.53102,
            51.43703,
            1310.53
          ],
          [
            -116.53093,
            51.437,
            1312.12
          ],
          [
            -116.53084,
            51.43697,
            1313.78
          ],
          [
            -116.53077,
            51.43691,
            1315.74
          ],
          [
            -116.53069,
            51.4368,
            1316.79
          ],
          [
            -116.53064,
            51.43674,
            1317.06
          ],
          [
            -116.53062,
            51.43673,
            1317.07
          ],
          [
            -116.53059,
            51.43672,
            1317.05
          ],
          [
            -116.53056,
            51.43672,
            1317.01
          ],
          [
            -116.53053,
            51.43674,
            1316.91
          ],
          [
            -116.53049,
            51.43674,
            1316.78
          ],
          [
            -116.53037,
            51.43681,
            1317.04
          ],
          [
            -116.53032,
            51.43683,
            1317.3
          ],
          [
            -116.53025,
            51.43684,
            1317.33
          ],
          [
            -116.53017,
            51.43684,
            1316.87
          ],
          [
            -116.53011,
            51.43685,
            1316.64
          ],
          [
            -116.53007,
            51.43685,
            1316.4
          ],
          [
            -116.53001,
            51.43686,
            1316.15
          ],
          [
            -116.5299,
            51.43688,
            1315.73
          ],
          [
            -116.52968,
            51.43691,
            1314.49
          ],
          [
            -116.52965,
            51.43692,
            1314.4
          ],
          [
            -116.52957,
            51.43695,
            1313.8
          ],
          [
            -116.52944,
            51.43698,
            1312.82
          ],
          [
            -116.52938,
            51.43699,
            1312.17
          ],
          [
            -116.52936,
            51.43699,
            1312.07
          ],
          [
            -116.52924,
            51.43698,
            1311.66
          ],
          [
            -116.52907,
            51.43698,
            1311.67
          ],
          [
            -116.52895,
            51.43701,
            1311.73
          ],
          [
            -116.52883,
            51.43701,
            1312.8
          ],
          [
            -116.52871,
            51.43704,
            1313.76
          ],
          [
            -116.52868,
            51.43704,
            1314.11
          ],
          [
            -116.52861,
            51.43705,
            1314.73
          ],
          [
            -116.52855,
            51.43707,
            1314.97
          ],
          [
            -116.5284,
            51.4371,
            1315.83
          ],
          [
            -116.52815,
            51.43719,
            1315.09
          ],
          [
            -116.52803,
            51.43724,
            1314.7
          ],
          [
            -116.52794,
            51.43727,
            1313.92
          ],
          [
            -116.52788,
            51.43732,
            1312.87
          ],
          [
            -116.52783,
            51.4374,
            1311.23
          ],
          [
            -116.52779,
            51.43743,
            1310.37
          ],
          [
            -116.5277,
            51.43748,
            1308.32
          ],
          [
            -116.52762,
            51.43752,
            1306.87
          ],
          [
            -116.52755,
            51.43755,
            1306.08
          ],
          [
            -116.52754,
            51.43755,
            1305.94
          ],
          [
            -116.52746,
            51.43759,
            1306.13
          ],
          [
            -116.52736,
            51.43763,
            1307.28
          ],
          [
            -116.52725,
            51.43765,
            1308.15
          ],
          [
            -116.52718,
            51.43766,
            1308.77
          ],
          [
            -116.52714,
            51.43766,
            1309.24
          ],
          [
            -116.52704,
            51.43767,
            1310.24
          ],
          [
            -116.5269,
            51.43771,
            1311.3
          ],
          [
            -116.52659,
            51.43787,
            1315.62
          ],
          [
            -116.52646,
            51.43796,
            1317.17
          ],
          [
            -116.52637,
            51.43801,
            1317.82
          ],
          [
            -116.52628,
            51.43805,
            1319.01
          ],
          [
            -116.52619,
            51.43809,
            1320.08
          ],
          [
            -116.52608,
            51.43814,
            1320.9
          ],
          [
            -116.52601,
            51.43817,
            1320.72
          ],
          [
            -116.52596,
            51.43818,
            1320.75
          ],
          [
            -116.52572,
            51.43825,
            1320.16
          ],
          [
            -116.52558,
            51.4383,
            1318.9
          ],
          [
            -116.5255,
            51.43832,
            1317.56
          ],
          [
            -116.52547,
            51.43832,
            1317.13
          ],
          [
            -116.52545,
            51.43833,
            1316.57
          ],
          [
            -116.52541,
            51.43834,
            1315.87
          ],
          [
            -116.52531,
            51.43838,
            1314.28
          ],
          [
            -116.52524,
            51.43839,
            1313.34
          ],
          [
            -116.52518,
            51.43839,
            1312.6
          ],
          [
            -116.52512,
            51.4384,
            1311.9
          ],
          [
            -116.52501,
            51.43842,
            1310.73
          ],
          [
            -116.52492,
            51.43844,
            1310.35
          ],
          [
            -116.52482,
            51.43846,
            1310.15
          ],
          [
            -116.52467,
            51.43848,
            1310.91
          ],
          [
            -116.52456,
            51.43852,
            1313.17
          ],
          [
            -116.52447,
            51.43856,
            1314.95
          ],
          [
            -116.52439,
            51.43862,
            1316.55
          ],
          [
            -116.52426,
            51.43871,
            1317.4
          ],
          [
            -116.52421,
            51.43876,
            1317.54
          ],
          [
            -116.52417,
            51.43882,
            1317.47
          ],
          [
            -116.52415,
            51.43889,
            1317.22
          ],
          [
            -116.52413,
            51.43895,
            1316.4
          ],
          [
            -116.52411,
            51.43899,
            1315.92
          ],
          [
            -116.52409,
            51.43902,
            1315.61
          ],
          [
            -116.52406,
            51.43908,
            1314.83
          ],
          [
            -116.52405,
            51.43911,
            1314.37
          ],
          [
            -116.52405,
            51.43913,
            1313.98
          ],
          [
            -116.52404,
            51.43914,
            1313.89
          ],
          [
            -116.52404,
            51.4393,
            1311.49
          ],
          [
            -116.52403,
            51.43935,
            1310.85
          ],
          [
            -116.52403,
            51.43942,
            1309.84
          ],
          [
            -116.52404,
            51.43957,
            1308.55
          ],
          [
            -116.52404,
            51.43973,
            1307.28
          ],
          [
            -116.52404,
            51.4399,
            1303.5
          ],
          [
            -116.52404,
            51.43996,
            1302.17
          ],
          [
            -116.52404,
            51.44004,
            1301.99
          ],
          [
            -116.52406,
            51.4401,
            1302.64
          ],
          [
            -116.52408,
            51.44013,
            1302.72
          ],
          [
            -116.52409,
            51.44018,
            1303.33
          ],
          [
            -116.52409,
            51.44029,
            1304.91
          ],
          [
            -116.5241,
            51.44032,
            1304.6
          ],
          [
            -116.52409,
            51.44037,
            1304.78
          ],
          [
            -116.52411,
            51.44046,
            1304.04
          ],
          [
            -116.52411,
            51.44055,
            1303.85
          ],
          [
            -116.52414,
            51.44063,
            1302.67
          ],
          [
            -116.52415,
            51.44067,
            1302.2
          ],
          [
            -116.52415,
            51.44072,
            1302.05
          ],
          [
            -116.52416,
            51.44077,
            1301.5
          ],
          [
            -116.52417,
            51.44083,
            1300.95
          ],
          [
            -116.52417,
            51.44091,
            1301.21
          ],
          [
            -116.52414,
            51.44106,
            1302.65
          ],
          [
            -116.52412,
            51.44111,
            1303.34
          ],
          [
            -116.52408,
            51.44119,
            1304.82
          ],
          [
            -116.52404,
            51.44123,
            1305.76
          ],
          [
            -116.52401,
            51.44127,
            1306.29
          ],
          [
            -116.52399,
            51.44133,
            1306.44
          ],
          [
            -116.52397,
            51.44142,
            1306.99
          ],
          [
            -116.52395,
            51.44146,
            1307.93
          ],
          [
            -116.52394,
            51.44153,
            1309.4
          ],
          [
            -116.52393,
            51.44159,
            1310.73
          ],
          [
            -116.52392,
            51.44163,
            1311.69
          ],
          [
            -116.52392,
            51.44167,
            1312.34
          ],
          [
            -116.52393,
            51.44172,
            1310.55
          ],
          [
            -116.52395,
            51.4418,
            1307.43
          ],
          [
            -116.52395,
            51.44184,
            1306.08
          ],
          [
            -116.52398,
            51.4419,
            1302.99
          ],
          [
            -116.52409,
            51.44214,
            1295.75
          ],
          [
            -116.52411,
            51.44219,
            1294.82
          ],
          [
            -116.52416,
            51.44227,
            1293.69
          ],
          [
            -116.52421,
            51.44232,
            1293.44
          ],
          [
            -116.52429,
            51.44239,
            1293.4
          ],
          [
            -116.52432,
            51.4424,
            1293.22
          ],
          [
            -116.52437,
            51.44243,
            1293.23
          ],
          [
            -116.52441,
            51.44244,
            1293.03
          ],
          [
            -116.52442,
            51.44245,
            1293.14
          ],
          [
            -116.52444,
            51.44246,
            1293.17
          ],
          [
            -116.52449,
            51.44247,
            1293.22
          ],
          [
            -116.52451,
            51.44247,
            1293.17
          ],
          [
            -116.52452,
            51.44248,
            1293.34
          ],
          [
            -116.52452,
            51.44249,
            1293.53
          ],
          [
            -116.52453,
            51.44252,
            1294.03
          ],
          [
            -116.52454,
            51.44257,
            1294.83
          ],
          [
            -116.52459,
            51.44271,
            1296.86
          ],
          [
            -116.52462,
            51.44281,
            1298.05
          ],
          [
            -116.52463,
            51.44284,
            1298.26
          ],
          [
            -116.52464,
            51.44288,
            1298.55
          ],
          [
            -116.52465,
            51.44294,
            1298.99
          ],
          [
            -116.52467,
            51.44314,
            1301.71
          ],
          [
            -116.52468,
            51.44321,
            1303.25
          ],
          [
            -116.52469,
            51.44325,
            1304.12
          ],
          [
            -116.52469,
            51.44328,
            1304.84
          ],
          [
            -116.5247,
            51.44332,
            1305.76
          ],
          [
            -116.52472,
            51.44339,
            1306.22
          ],
          [
            -116.52476,
            51.44349,
            1305.59
          ],
          [
            -116.52478,
            51.44353,
            1305.17
          ],
          [
            -116.52488,
            51.44361,
            1302.46
          ],
          [
            -116.52491,
            51.44365,
            1301.6
          ],
          [
            -116.52499,
            51.44369,
            1299.54
          ],
          [
            -116.52512,
            51.44371,
            1297.91
          ],
          [
            -116.52516,
            51.44373,
            1297.45
          ],
          [
            -116.5253,
            51.44376,
            1295.96
          ],
          [
            -116.52535,
            51.44378,
            1295.9
          ],
          [
            -116.52539,
            51.44381,
            1295.89
          ],
          [
            -116.52541,
            51.44383,
            1295.9
          ],
          [
            -116.52542,
            51.44386,
            1295.95
          ],
          [
            -116.52542,
            51.44391,
            1296.15
          ],
          [
            -116.52541,
            51.44395,
            1296.45
          ],
          [
            -116.52541,
            51.44398,
            1296.67
          ],
          [
            -116.52542,
            51.44402,
            1296.93
          ],
          [
            -116.52544,
            51.44405,
            1297.06
          ],
          [
            -116.52549,
            51.44407,
            1296.96
          ],
          [
            -116.5256,
            51.44411,
            1296.51
          ],
          [
            -116.52568,
            51.44412,
            1296.01
          ],
          [
            -116.52576,
            51.44415,
            1295.51
          ],
          [
            -116.52584,
            51.44417,
            1294.99
          ],
          [
            -116.5259,
            51.44419,
            1294.82
          ],
          [
            -116.52606,
            51.44424,
            1294.23
          ],
          [
            -116.52627,
            51.4443,
            1293.68
          ],
          [
            -116.52632,
            51.44434,
            1293.9
          ],
          [
            -116.52639,
            51.44439,
            1294.41
          ],
          [
            -116.52646,
            51.44445,
            1294.78
          ],
          [
            -116.52651,
            51.44449,
            1294.82
          ],
          [
            -116.52654,
            51.44453,
            1294.9
          ],
          [
            -116.52656,
            51.44456,
            1294.96
          ],
          [
            -116.52656,
            51.44459,
            1295.11
          ],
          [
            -116.5266,
            51.44465,
            1295.16
          ],
          [
            -116.52661,
            51.4447,
            1295.31
          ],
          [
            -116.52665,
            51.44475,
            1295.31
          ],
          [
            -116.52669,
            51.44481,
            1295.49
          ],
          [
            -116.5267,
            51.44489,
            1296.04
          ],
          [
            -116.52672,
            51.44495,
            1296.41
          ],
          [
            -116.52672,
            51.44498,
            1296.65
          ],
          [
            -116.52672,
            51.445,
            1296.81
          ],
          [
            -116.52662,
            51.44511,
            1298.75
          ],
          [
            -116.52652,
            51.44521,
            1300.55
          ],
          [
            -116.52639,
            51.44533,
            1302
          ],
          [
            -116.52633,
            51.44539,
            1302.93
          ],
          [
            -116.52626,
            51.44546,
            1303.57
          ],
          [
            -116.52624,
            51.44552,
            1303.35
          ],
          [
            -116.52624,
            51.44556,
            1303.04
          ],
          [
            -116.52626,
            51.44562,
            1302.45
          ],
          [
            -116.52631,
            51.44572,
            1301.13
          ],
          [
            -116.52637,
            51.44579,
            1299.72
          ],
          [
            -116.52646,
            51.44587,
            1297.13
          ],
          [
            -116.52647,
            51.4459,
            1295.91
          ],
          [
            -116.52646,
            51.44593,
            1294.91
          ],
          [
            -116.52646,
            51.44596,
            1293.8
          ],
          [
            -116.52641,
            51.446,
            1293.22
          ],
          [
            -116.52636,
            51.44604,
            1293.42
          ],
          [
            -116.52633,
            51.44607,
            1293.81
          ],
          [
            -116.52631,
            51.44612,
            1293.63
          ],
          [
            -116.5263,
            51.44615,
            1293.89
          ],
          [
            -116.52629,
            51.44618,
            1294.12
          ],
          [
            -116.52631,
            51.44623,
            1292.9
          ],
          [
            -116.52631,
            51.44627,
            1292.63
          ],
          [
            -116.52633,
            51.44632,
            1291.53
          ],
          [
            -116.52635,
            51.44642,
            1289.98
          ],
          [
            -116.52638,
            51.4465,
            1287.75
          ],
          [
            -116.52641,
            51.44656,
            1286.25
          ],
          [
            -116.52645,
            51.4466,
            1285.19
          ],
          [
            -116.52646,
            51.44664,
            1284.57
          ],
          [
            -116.52648,
            51.44667,
            1284.07
          ],
          [
            -116.52649,
            51.4467,
            1284.46
          ],
          [
            -116.52649,
            51.44675,
            1285.3
          ],
          [
            -116.52646,
            51.44684,
            1287.19
          ],
          [
            -116.52646,
            51.4469,
            1288.22
          ],
          [
            -116.52645,
            51.44695,
            1289.3
          ],
          [
            -116.52645,
            51.44698,
            1290.28
          ],
          [
            -116.52644,
            51.44702,
            1291.69
          ],
          [
            -116.52642,
            51.44708,
            1293.73
          ],
          [
            -116.52641,
            51.44715,
            1295.9
          ],
          [
            -116.52639,
            51.4472,
            1297.36
          ],
          [
            -116.52638,
            51.44725,
            1298.25
          ],
          [
            -116.52636,
            51.44732,
            1298.8
          ],
          [
            -116.52629,
            51.44738,
            1299.94
          ],
          [
            -116.52624,
            51.44741,
            1300.63
          ],
          [
            -116.52612,
            51.44749,
            1301.94
          ],
          [
            -116.52606,
            51.44752,
            1301.97
          ],
          [
            -116.52601,
            51.44755,
            1301.82
          ],
          [
            -116.52594,
            51.44767,
            1300.78
          ],
          [
            -116.52593,
            51.4477,
            1300.49
          ],
          [
            -116.52591,
            51.44774,
            1300.13
          ],
          [
            -116.52589,
            51.44778,
            1299.82
          ],
          [
            -116.52587,
            51.44781,
            1300.23
          ],
          [
            -116.52586,
            51.44784,
            1300.6
          ],
          [
            -116.52582,
            51.44792,
            1301.49
          ],
          [
            -116.52576,
            51.448,
            1301.98
          ],
          [
            -116.52572,
            51.44808,
            1302.2
          ],
          [
            -116.52571,
            51.44812,
            1302.19
          ],
          [
            -116.52573,
            51.44817,
            1302.3
          ],
          [
            -116.52567,
            51.44831,
            1302.52
          ],
          [
            -116.52561,
            51.44839,
            1302.64
          ],
          [
            -116.52551,
            51.44848,
            1302.89
          ],
          [
            -116.52544,
            51.44854,
            1303.4
          ],
          [
            -116.52541,
            51.44857,
            1303.64
          ],
          [
            -116.52538,
            51.44859,
            1303.92
          ],
          [
            -116.52537,
            51.44861,
            1304.01
          ],
          [
            -116.52533,
            51.44864,
            1303.85
          ],
          [
            -116.52529,
            51.44867,
            1303.61
          ],
          [
            -116.52528,
            51.44869,
            1303.28
          ],
          [
            -116.52522,
            51.44873,
            1303.53
          ],
          [
            -116.52515,
            51.44879,
            1303.86
          ],
          [
            -116.52509,
            51.44886,
            1304.15
          ],
          [
            -116.52507,
            51.44892,
            1303.9
          ],
          [
            -116.52506,
            51.44896,
            1303.72
          ],
          [
            -116.52508,
            51.44901,
            1302.68
          ],
          [
            -116.52511,
            51.44906,
            1301.38
          ],
          [
            -116.52514,
            51.44916,
            1299.54
          ],
          [
            -116.52513,
            51.4492,
            1300.02
          ],
          [
            -116.52513,
            51.44926,
            1300.55
          ],
          [
            -116.5251,
            51.44932,
            1301.78
          ],
          [
            -116.52508,
            51.44938,
            1302.74
          ],
          [
            -116.52506,
            51.44944,
            1303.67
          ],
          [
            -116.52502,
            51.44952,
            1303.54
          ],
          [
            -116.52498,
            51.44962,
            1302.98
          ],
          [
            -116.52493,
            51.44967,
            1303.52
          ],
          [
            -116.52483,
            51.44974,
            1305.18
          ],
          [
            -116.52472,
            51.44983,
            1307.27
          ],
          [
            -116.52467,
            51.44988,
            1307.97
          ],
          [
            -116.52463,
            51.44994,
            1308.24
          ],
          [
            -116.52457,
            51.45,
            1308.74
          ],
          [
            -116.52453,
            51.45008,
            1307.84
          ],
          [
            -116.5245,
            51.4501,
            1308.06
          ],
          [
            -116.52446,
            51.45015,
            1307.96
          ],
          [
            -116.52443,
            51.45018,
            1308.28
          ],
          [
            -116.52441,
            51.45022,
            1308.33
          ],
          [
            -116.52439,
            51.45024,
            1308.76
          ],
          [
            -116.52436,
            51.45027,
            1309.46
          ],
          [
            -116.52433,
            51.45034,
            1310.65
          ],
          [
            -116.52433,
            51.45038,
            1310.73
          ],
          [
            -116.52433,
            51.4504,
            1310.76
          ],
          [
            -116.52432,
            51.45042,
            1311.09
          ],
          [
            -116.52425,
            51.45049,
            1312.78
          ],
          [
            -116.52415,
            51.45056,
            1314.34
          ],
          [
            -116.5241,
            51.45063,
            1314.72
          ],
          [
            -116.52409,
            51.45065,
            1314.66
          ],
          [
            -116.52409,
            51.45071,
            1314.03
          ],
          [
            -116.52411,
            51.45077,
            1313.35
          ],
          [
            -116.52415,
            51.45078,
            1313.21
          ],
          [
            -116.52421,
            51.45084,
            1312.72
          ],
          [
            -116.52426,
            51.45087,
            1312.41
          ],
          [
            -116.52429,
            51.45088,
            1312.15
          ],
          [
            -116.5244,
            51.4509,
            1310.99
          ],
          [
            -116.52442,
            51.45091,
            1310.72
          ],
          [
            -116.52445,
            51.45091,
            1310.36
          ],
          [
            -116.52447,
            51.45091,
            1310.03
          ],
          [
            -116.52449,
            51.45092,
            1309.62
          ],
          [
            -116.52458,
            51.45093,
            1308.01
          ],
          [
            -116.52472,
            51.45096,
            1305.22
          ],
          [
            -116.52476,
            51.45098,
            1304.28
          ],
          [
            -116.52487,
            51.451,
            1302.26
          ],
          [
            -116.52492,
            51.45101,
            1301.35
          ],
          [
            -116.52503,
            51.45101,
            1299.76
          ],
          [
            -116.52508,
            51.45102,
            1299.12
          ],
          [
            -116.52513,
            51.45102,
            1298.59
          ],
          [
            -116.52519,
            51.45102,
            1297.94
          ],
          [
            -116.52523,
            51.45101,
            1297.53
          ],
          [
            -116.52529,
            51.45101,
            1296.94
          ],
          [
            -116.5255,
            51.45101,
            1295.91
          ],
          [
            -116.52562,
            51.45102,
            1295.44
          ],
          [
            -116.52577,
            51.45102,
            1294.9
          ],
          [
            -116.52587,
            51.45102,
            1294.94
          ],
          [
            -116.52594,
            51.45102,
            1295.44
          ],
          [
            -116.52601,
            51.45102,
            1295.94
          ],
          [
            -116.52608,
            51.45103,
            1296.48
          ],
          [
            -116.52614,
            51.45103,
            1296.89
          ],
          [
            -116.52624,
            51.45103,
            1297.5
          ],
          [
            -116.52635,
            51.45102,
            1298.11
          ],
          [
            -116.52697,
            51.45102,
            1297.42
          ],
          [
            -116.5271,
            51.45103,
            1297.85
          ],
          [
            -116.52723,
            51.45103,
            1298.3
          ],
          [
            -116.52735,
            51.45103,
            1298.48
          ],
          [
            -116.52742,
            51.45104,
            1298.6
          ],
          [
            -116.5275,
            51.45104,
            1298.74
          ],
          [
            -116.52755,
            51.45103,
            1298.6
          ],
          [
            -116.52763,
            51.45104,
            1298.5
          ],
          [
            -116.52837,
            51.45104,
            1296.59
          ],
          [
            -116.52843,
            51.45103,
            1296.66
          ],
          [
            -116.52858,
            51.45103,
            1297.04
          ],
          [
            -116.52868,
            51.45104,
            1297.42
          ],
          [
            -116.52881,
            51.45104,
            1297.76
          ],
          [
            -116.529,
            51.45104,
            1298.38
          ],
          [
            -116.52927,
            51.45104,
            1299.07
          ],
          [
            -116.52954,
            51.45105,
            1299.53
          ],
          [
            -116.52957,
            51.45105,
            1299.59
          ],
          [
            -116.52961,
            51.45105,
            1299.67
          ],
          [
            -116.52997,
            51.45105,
            1300.79
          ],
          [
            -116.53005,
            51.45106,
            1301.44
          ],
          [
            -116.53018,
            51.45106,
            1302.38
          ],
          [
            -116.5302,
            51.45106,
            1302.52
          ],
          [
            -116.53024,
            51.45105,
            1302.63
          ],
          [
            -116.53027,
            51.45106,
            1303.02
          ],
          [
            -116.53047,
            51.45105,
            1303.2
          ],
          [
            -116.53068,
            51.45105,
            1302.44
          ],
          [
            -116.53091,
            51.45105,
            1300.57
          ],
          [
            -116.53098,
            51.45105,
            1299.87
          ],
          [
            -116.53104,
            51.45104,
            1299.19
          ],
          [
            -116.5311,
            51.45104,
            1298.6
          ],
          [
            -116.53124,
            51.45101,
            1298.69
          ],
          [
            -116.53132,
            51.45101,
            1298.95
          ],
          [
            -116.53138,
            51.45099,
            1298.8
          ],
          [
            -116.53142,
            51.45099,
            1298.95
          ],
          [
            -116.5315,
            51.45096,
            1298.64
          ],
          [
            -116.53156,
            51.45094,
            1298.39
          ],
          [
            -116.53162,
            51.45093,
            1298.32
          ],
          [
            -116.53167,
            51.45092,
            1298.22
          ],
          [
            -116.5317,
            51.45091,
            1298.26
          ],
          [
            -116.53194,
            51.45086,
            1299.53
          ],
          [
            -116.53206,
            51.45084,
            1299.95
          ],
          [
            -116.53224,
            51.45082,
            1300.89
          ],
          [
            -116.53244,
            51.4508,
            1300.19
          ],
          [
            -116.53252,
            51.45078,
            1300
          ],
          [
            -116.53265,
            51.45076,
            1300
          ],
          [
            -116.53273,
            51.45073,
            1300
          ],
          [
            -116.53286,
            51.45071,
            1299.67
          ],
          [
            -116.53289,
            51.45071,
            1299.55
          ],
          [
            -116.53293,
            51.4507,
            1299.43
          ],
          [
            -116.53299,
            51.45069,
            1299.26
          ],
          [
            -116.53304,
            51.45069,
            1299.09
          ],
          [
            -116.53308,
            51.45068,
            1299.02
          ],
          [
            -116.53329,
            51.45066,
            1298.4
          ],
          [
            -116.53355,
            51.45062,
            1297.52
          ],
          [
            -116.53359,
            51.45062,
            1297.33
          ],
          [
            -116.53365,
            51.45061,
            1297.17
          ],
          [
            -116.53371,
            51.45061,
            1297.13
          ],
          [
            -116.53376,
            51.45059,
            1297.06
          ],
          [
            -116.53392,
            51.45057,
            1296.9
          ],
          [
            -116.53395,
            51.45056,
            1296.79
          ],
          [
            -116.534,
            51.45051,
            1296.57
          ],
          [
            -116.53403,
            51.45043,
            1296.26
          ],
          [
            -116.53405,
            51.45035,
            1295.87
          ],
          [
            -116.53406,
            51.45027,
            1295.51
          ],
          [
            -116.53406,
            51.45021,
            1295.33
          ],
          [
            -116.53405,
            51.45015,
            1295.34
          ],
          [
            -116.53398,
            51.44996,
            1296.89
          ],
          [
            -116.53397,
            51.44992,
            1297.19
          ],
          [
            -116.53396,
            51.44975,
            1297.5
          ],
          [
            -116.53397,
            51.44959,
            1297.87
          ],
          [
            -116.53397,
            51.44947,
            1297.98
          ],
          [
            -116.53397,
            51.44942,
            1297.33
          ],
          [
            -116.53396,
            51.44939,
            1296.53
          ],
          [
            -116.53395,
            51.44934,
            1295.2
          ],
          [
            -116.53394,
            51.44927,
            1293.37
          ],
          [
            -116.53392,
            51.44915,
            1290.68
          ],
          [
            -116.53388,
            51.4489,
            1289.27
          ],
          [
            -116.53386,
            51.44885,
            1291.28
          ],
          [
            -116.53382,
            51.44876,
            1295.25
          ],
          [
            -116.53379,
            51.44872,
            1296.66
          ],
          [
            -116.53376,
            51.44861,
            1299.69
          ],
          [
            -116.53376,
            51.44856,
            1300.28
          ],
          [
            -116.53376,
            51.44853,
            1300.63
          ],
          [
            -116.53376,
            51.44852,
            1300.75
          ],
          [
            -116.53377,
            51.4485,
            1301.06
          ],
          [
            -116.53378,
            51.44845,
            1301.63
          ],
          [
            -116.53381,
            51.44838,
            1302.23
          ],
          [
            -116.53388,
            51.44825,
            1304.43
          ],
          [
            -116.53391,
            51.44822,
            1305.19
          ],
          [
            -116.53395,
            51.44805,
            1309.89
          ],
          [
            -116.53397,
            51.44795,
            1311.94
          ],
          [
            -116.53402,
            51.44786,
            1314.04
          ],
          [
            -116.53408,
            51.44779,
            1316.07
          ],
          [
            -116.53418,
            51.44769,
            1319.26
          ],
          [
            -116.53419,
            51.44768,
            1319.54
          ],
          [
            -116.53423,
            51.44762,
            1320.88
          ],
          [
            -116.53427,
            51.44755,
            1322.03
          ],
          [
            -116.53432,
            51.44742,
            1320.55
          ],
          [
            -116.53436,
            51.44732,
            1318.34
          ],
          [
            -116.53439,
            51.44723,
            1316.75
          ],
          [
            -116.53442,
            51.44715,
            1315.26
          ],
          [
            -116.53446,
            51.44704,
            1313.23
          ],
          [
            -116.53453,
            51.44692,
            1311.82
          ],
          [
            -116.53458,
            51.44681,
            1311.52
          ],
          [
            -116.53459,
            51.44679,
            1311.41
          ],
          [
            -116.53471,
            51.44657,
            1310.06
          ],
          [
            -116.53488,
            51.44644,
            1319.28
          ],
          [
            -116.53499,
            51.44634,
            1326.35
          ],
          [
            -116.53507,
            51.44624,
            1326.87
          ],
          [
            -116.53515,
            51.44615,
            1328.72
          ],
          [
            -116.53522,
            51.44608,
            1330.23
          ],
          [
            -116.53526,
            51.44603,
            1329.98
          ],
          [
            -116.53528,
            51.44599,
            1329.2
          ],
          [
            -116.53534,
            51.4459,
            1325.99
          ],
          [
            -116.53541,
            51.44577,
            1321.54
          ],
          [
            -116.53545,
            51.44569,
            1318.84
          ],
          [
            -116.53556,
            51.44552,
            1316.06
          ],
          [
            -116.53563,
            51.44544,
            1313.4
          ],
          [
            -116.53567,
            51.44539,
            1311.84
          ],
          [
            -116.53579,
            51.44527,
            1308.26
          ],
          [
            -116.53583,
            51.44524,
            1307.75
          ],
          [
            -116.53586,
            51.44522,
            1307.47
          ],
          [
            -116.5359,
            51.44521,
            1307.21
          ],
          [
            -116.53595,
            51.44518,
            1306.73
          ],
          [
            -116.53604,
            51.44515,
            1305.99
          ],
          [
            -116.53613,
            51.44513,
            1305.3
          ],
          [
            -116.53616,
            51.44512,
            1305.04
          ],
          [
            -116.53626,
            51.4451,
            1304.35
          ],
          [
            -116.53655,
            51.44504,
            1302.88
          ],
          [
            -116.53663,
            51.44501,
            1302.27
          ],
          [
            -116.53671,
            51.44496,
            1302.95
          ],
          [
            -116.53677,
            51.44492,
            1303.88
          ],
          [
            -116.53683,
            51.44484,
            1304.07
          ],
          [
            -116.53689,
            51.44476,
            1303.52
          ],
          [
            -116.53696,
            51.44467,
            1304.02
          ],
          [
            -116.53702,
            51.44461,
            1305.23
          ],
          [
            -116.53711,
            51.44451,
            1306.65
          ],
          [
            -116.53733,
            51.44434,
            1309.03
          ],
          [
            -116.53745,
            51.44425,
            1311.07
          ],
          [
            -116.53762,
            51.44413,
            1312.55
          ],
          [
            -116.53772,
            51.44405,
            1312.45
          ],
          [
            -116.53779,
            51.444,
            1312.56
          ],
          [
            -116.53782,
            51.44397,
            1312.56
          ],
          [
            -116.53783,
            51.44395,
            1312.59
          ],
          [
            -116.53785,
            51.44393,
            1312.59
          ],
          [
            -116.53807,
            51.44379,
            1309.44
          ],
          [
            -116.53814,
            51.44376,
            1308.31
          ],
          [
            -116.53822,
            51.44372,
            1306.79
          ],
          [
            -116.53834,
            51.44368,
            1304.95
          ],
          [
            -116.53846,
            51.44366,
            1303.87
          ],
          [
            -116.53864,
            51.4436,
            1302.04
          ],
          [
            -116.53873,
            51.44357,
            1302.15
          ],
          [
            -116.53883,
            51.44352,
            1302.33
          ],
          [
            -116.53892,
            51.44348,
            1302.48
          ],
          [
            -116.53903,
            51.44344,
            1302.5
          ],
          [
            -116.53916,
            51.44341,
            1302.29
          ],
          [
            -116.5393,
            51.44338,
            1302.65
          ],
          [
            -116.53935,
            51.44336,
            1302.76
          ],
          [
            -116.53951,
            51.44333,
            1303.01
          ],
          [
            -116.53956,
            51.44331,
            1303.05
          ],
          [
            -116.53961,
            51.44331,
            1303.03
          ],
          [
            -116.53971,
            51.44327,
            1303.01
          ],
          [
            -116.53977,
            51.44326,
            1303.05
          ],
          [
            -116.53983,
            51.44326,
            1303.1
          ],
          [
            -116.53985,
            51.44324,
            1303.15
          ],
          [
            -116.53989,
            51.44324,
            1303.2
          ],
          [
            -116.54007,
            51.44318,
            1303.05
          ],
          [
            -116.54019,
            51.44313,
            1302.36
          ],
          [
            -116.54027,
            51.4431,
            1301.9
          ],
          [
            -116.54034,
            51.44307,
            1301.5
          ],
          [
            -116.54043,
            51.44303,
            1301.14
          ],
          [
            -116.54057,
            51.44298,
            1300.8
          ],
          [
            -116.54074,
            51.44288,
            1301.48
          ],
          [
            -116.54088,
            51.44282,
            1301.84
          ],
          [
            -116.54097,
            51.44277,
            1302.49
          ],
          [
            -116.54105,
            51.44274,
            1302.7
          ],
          [
            -116.54111,
            51.4427,
            1302.72
          ],
          [
            -116.54117,
            51.44267,
            1302.4
          ],
          [
            -116.54124,
            51.44264,
            1302.04
          ],
          [
            -116.5413,
            51.44263,
            1301.79
          ],
          [
            -116.54136,
            51.44261,
            1301.5
          ],
          [
            -116.54141,
            51.4426,
            1301.26
          ],
          [
            -116.54142,
            51.4426,
            1301.21
          ],
          [
            -116.54144,
            51.44259,
            1301.08
          ],
          [
            -116.54149,
            51.44258,
            1300.82
          ],
          [
            -116.54151,
            51.44257,
            1300.71
          ],
          [
            -116.54154,
            51.44256,
            1300.55
          ],
          [
            -116.54159,
            51.44255,
            1300.33
          ],
          [
            -116.54165,
            51.44254,
            1300.07
          ],
          [
            -116.54176,
            51.44253,
            1299.96
          ],
          [
            -116.54189,
            51.44252,
            1299.94
          ],
          [
            -116.54203,
            51.44249,
            1300.1
          ],
          [
            -116.54211,
            51.44249,
            1300.09
          ],
          [
            -116.54213,
            51.44248,
            1300.17
          ],
          [
            -116.54216,
            51.44246,
            1300.32
          ],
          [
            -116.54221,
            51.44245,
            1300.37
          ],
          [
            -116.54229,
            51.44239,
            1301.04
          ],
          [
            -116.54238,
            51.44232,
            1301.86
          ],
          [
            -116.54243,
            51.44226,
            1302.48
          ],
          [
            -116.54247,
            51.44218,
            1302.03
          ],
          [
            -116.5425,
            51.44213,
            1301.01
          ],
          [
            -116.54254,
            51.4421,
            1300.77
          ],
          [
            -116.54256,
            51.44206,
            1300.18
          ],
          [
            -116.54257,
            51.44203,
            1299.7
          ],
          [
            -116.5426,
            51.44198,
            1299.12
          ],
          [
            -116.54262,
            51.44191,
            1298.71
          ],
          [
            -116.54264,
            51.44187,
            1299.02
          ],
          [
            -116.54266,
            51.44179,
            1299.39
          ],
          [
            -116.5427,
            51.44168,
            1300.3
          ],
          [
            -116.54269,
            51.44166,
            1300.1
          ],
          [
            -116.5427,
            51.44163,
            1300.3
          ],
          [
            -116.54268,
            51.44154,
            1299.91
          ],
          [
            -116.54265,
            51.44137,
            1300.13
          ],
          [
            -116.54262,
            51.44127,
            1302.48
          ],
          [
            -116.54255,
            51.44115,
            1304.71
          ],
          [
            -116.54246,
            51.44101,
            1307.43
          ],
          [
            -116.54236,
            51.44084,
            1310.8
          ],
          [
            -116.5423,
            51.44077,
            1311.52
          ],
          [
            -116.54219,
            51.44065,
            1313.5
          ],
          [
            -116.54212,
            51.44054,
            1315.64
          ],
          [
            -116.54208,
            51.44046,
            1313.76
          ],
          [
            -116.54207,
            51.44042,
            1312.8
          ],
          [
            -116.54207,
            51.44039,
            1312.1
          ],
          [
            -116.54207,
            51.44036,
            1311.39
          ],
          [
            -116.54207,
            51.44035,
            1311.15
          ],
          [
            -116.54207,
            51.44034,
            1310.92
          ],
          [
            -116.54206,
            51.4403,
            1309.94
          ],
          [
            -116.54206,
            51.44028,
            1309.47
          ],
          [
            -116.54205,
            51.44024,
            1308.4
          ],
          [
            -116.54203,
            51.44012,
            1305.11
          ],
          [
            -116.54173,
            51.43967,
            1296.25
          ],
          [
            -116.54154,
            51.43944,
            1295.82
          ],
          [
            -116.54149,
            51.43938,
            1296.33
          ]
        ]
      }
    },
    {
      "type": "Feature",
      "properties": {
        "_gpxType": "trk",
        "name": "Takakkaw Falls Trail",
        "coordinateProperties": {}
      },
      "geometry": {
        "type": "LineString",
        "coordinates": [
          [
            -116.48304,
            51.49737,
            1501.3
          ],
          [
            -116.48296,
            51.49728,
            1499.18
          ],
          [
            -116.48289,
            51.49726,
            1498.71
          ],
          [
            -116.48282,
            51.49724,
            1498.67
          ],
          [
            -116.48277,
            51.49721,
            1499.03
          ],
          [
            -116.48275,
            51.49716,
            1499.06
          ],
          [
            -116.48275,
            51.49711,
            1499.02
          ],
          [
            -116.48277,
            51.49706,
            1499
          ],
          [
            -116.48279,
            51.49702,
            1499.06
          ],
          [
            -116.4828,
            51.49697,
            1499.15
          ],
          [
            -116.48279,
            51.49692,
            1499
          ],
          [
            -116.48274,
            51.49689,
            1498.72
          ],
          [
            -116.48266,
            51.49684,
            1498.52
          ],
          [
            -116.48262,
            51.4968,
            1498.5
          ],
          [
            -116.48259,
            51.49675,
            1498.57
          ],
          [
            -116.48257,
            51.49671,
            1498.67
          ],
          [
            -116.48254,
            51.49667,
            1498.85
          ],
          [
            -116.48252,
            51.49663,
            1498.28
          ],
          [
            -116.48251,
            51.49661,
            1497.95
          ],
          [
            -116.48251,
            51.49661,
            1497.95
          ],
          [
            -116.4825,
            51.49658,
            1497.44
          ],
          [
            -116.48247,
            51.49652,
            1496.58
          ],
          [
            -116.48243,
            51.49644,
            1495.42
          ],
          [
            -116.4824,
            51.49629,
            1495.28
          ],
          [
            -116.48237,
            51.49625,
            1495.5
          ],
          [
            -116.48234,
            51.49622,
            1495.58
          ],
          [
            -116.48231,
            51.49621,
            1495.54
          ],
          [
            -116.48229,
            51.49621,
            1495.5
          ],
          [
            -116.48228,
            51.49621,
            1495.48
          ],
          [
            -116.48228,
            51.49621,
            1495.48
          ],
          [
            -116.48225,
            51.4962,
            1495.39
          ],
          [
            -116.48221,
            51.49619,
            1495.34
          ],
          [
            -116.48216,
            51.49619,
            1495.57
          ],
          [
            -116.48211,
            51.49618,
            1495.75
          ],
          [
            -116.48205,
            51.49619,
            1496.08
          ],
          [
            -116.48194,
            51.49618,
            1496.52
          ],
          [
            -116.48175,
            51.49614,
            1496.98
          ],
          [
            -116.48166,
            51.49612,
            1497.14
          ],
          [
            -116.4816,
            51.4961,
            1497.45
          ],
          [
            -116.48159,
            51.4961,
            1497.52
          ],
          [
            -116.48153,
            51.49607,
            1497.91
          ],
          [
            -116.48144,
            51.49602,
            1498.57
          ],
          [
            -116.48131,
            51.49594,
            1499.57
          ],
          [
            -116.48124,
            51.4959,
            1500.07
          ],
          [
            -116.48114,
            51.49586,
            1500.79
          ],
          [
            -116.48088,
            51.49582,
            1502.94
          ],
          [
            -116.48076,
            51.49582,
            1503.75
          ],
          [
            -116.48069,
            51.49584,
            1504.01
          ],
          [
            -116.48065,
            51.49585,
            1504.26
          ],
          [
            -116.48061,
            51.49592,
            1504.3
          ],
          [
            -116.48058,
            51.49599,
            1504.26
          ],
          [
            -116.48056,
            51.49605,
            1504.19
          ],
          [
            -116.48054,
            51.4961,
            1504.15
          ],
          [
            -116.48052,
            51.49618,
            1505.03
          ],
          [
            -116.48049,
            51.49628,
            1506.44
          ],
          [
            -116.48047,
            51.49631,
            1506.98
          ],
          [
            -116.48038,
            51.49638,
            1508.78
          ],
          [
            -116.48021,
            51.49647,
            1508.66
          ],
          [
            -116.48018,
            51.4965,
            1508.19
          ],
          [
            -116.48016,
            51.49652,
            1507.89
          ],
          [
            -116.48015,
            51.49655,
            1507.49
          ],
          [
            -116.48014,
            51.4967,
            1507.02
          ],
          [
            -116.48012,
            51.49681,
            1510.35
          ],
          [
            -116.48011,
            51.49686,
            1511.84
          ],
          [
            -116.48009,
            51.49692,
            1513.59
          ],
          [
            -116.48006,
            51.497,
            1512.95
          ],
          [
            -116.48002,
            51.49709,
            1510.52
          ],
          [
            -116.47986,
            51.4972,
            1508.41
          ],
          [
            -116.4798,
            51.49726,
            1509.36
          ],
          [
            -116.47976,
            51.4973,
            1510.23
          ],
          [
            -116.47969,
            51.49735,
            1510.89
          ],
          [
            -116.47959,
            51.49745,
            1510.76
          ],
          [
            -116.47953,
            51.49752,
            1510.08
          ],
          [
            -116.4795,
            51.49758,
            1511.3
          ],
          [
            -116.4795,
            51.49761,
            1512.17
          ],
          [
            -116.47949,
            51.49764,
            1512.94
          ],
          [
            -116.47949,
            51.49765,
            1513.24
          ],
          [
            -116.47948,
            51.49767,
            1513.76
          ],
          [
            -116.4794,
            51.49773,
            1515.85
          ],
          [
            -116.47928,
            51.49781,
            1518.74
          ],
          [
            -116.47907,
            51.49792,
            1522.62
          ],
          [
            -116.47886,
            51.49805,
            1528.42
          ],
          [
            -116.47869,
            51.49814,
            1529.54
          ],
          [
            -116.47863,
            51.49819,
            1529.3
          ],
          [
            -116.47855,
            51.49823,
            1528.69
          ],
          [
            -116.4785,
            51.49826,
            1528.31
          ],
          [
            -116.47847,
            51.49828,
            1528.19
          ],
          [
            -116.47846,
            51.49828,
            1528.24
          ],
          [
            -116.47845,
            51.49828,
            1528.3
          ],
          [
            -116.47844,
            51.49828,
            1528.36
          ],
          [
            -116.47843,
            51.49828,
            1528.42
          ],
          [
            -116.4784,
            51.49829,
            1528.54
          ],
          [
            -116.47836,
            51.4983,
            1528.79
          ],
          [
            -116.47829,
            51.49833,
            1529.47
          ],
          [
            -116.47823,
            51.49836,
            1529.96
          ],
          [
            -116.47819,
            51.4984,
            1530.19
          ],
          [
            -116.47815,
            51.49844,
            1530.47
          ],
          [
            -116.4781,
            51.49848,
            1530.91
          ],
          [
            -116.47804,
            51.49852,
            1531.44
          ],
          [
            -116.47796,
            51.49854,
            1531.94
          ],
          [
            -116.47789,
            51.49857,
            1532.34
          ],
          [
            -116.47784,
            51.4986,
            1532.59
          ],
          [
            -116.4778,
            51.49864,
            1532.5
          ],
          [
            -116.47778,
            51.49869,
            1532.13
          ],
          [
            -116.47773,
            51.49873,
            1532.87
          ],
          [
            -116.47767,
            51.49877,
            1534.11
          ],
          [
            -116.47761,
            51.4988,
            1535.62
          ],
          [
            -116.47757,
            51.49884,
            1536.73
          ],
          [
            -116.47754,
            51.49888,
            1537.69
          ],
          [
            -116.47751,
            51.49893,
            1539.55
          ],
          [
            -116.47746,
            51.49896,
            1541.47
          ],
          [
            -116.47741,
            51.49899,
            1543.36
          ],
          [
            -116.47736,
            51.49901,
            1545.08
          ],
          [
            -116.47741,
            51.49899,
            1543.36
          ],
          [
            -116.47746,
            51.49896,
            1541.47
          ],
          [
            -116.47751,
            51.49893,
            1539.55
          ],
          [
            -116.47754,
            51.49888,
            1537.69
          ],
          [
            -116.47757,
            51.49884,
            1536.73
          ],
          [
            -116.47761,
            51.4988,
            1535.62
          ],
          [
            -116.47767,
            51.49877,
            1534.11
          ],
          [
            -116.47773,
            51.49873,
            1532.87
          ],
          [
            -116.47778,
            51.49869,
            1532.13
          ],
          [
            -116.4778,
            51.49864,
            1532.5
          ],
          [
            -116.47784,
            51.4986,
            1532.59
          ],
          [
            -116.47789,
            51.49857,
            1532.34
          ],
          [
            -116.47796,
            51.49854,
            1531.94
          ],
          [
            -116.47804,
            51.49852,
            1531.44
          ],
          [
            -116.4781,
            51.49848,
            1530.91
          ],
          [
            -116.47815,
            51.49844,
            1530.47
          ],
          [
            -116.47819,
            51.4984,
            1530.19
          ],
          [
            -116.47823,
            51.49836,
            1529.96
          ],
          [
            -116.47829,
            51.49833,
            1529.47
          ],
          [
            -116.47836,
            51.4983,
            1528.79
          ],
          [
            -116.4784,
            51.49829,
            1528.54
          ],
          [
            -116.47843,
            51.49828,
            1528.42
          ],
          [
            -116.47844,
            51.49828,
            1528.36
          ],
          [
            -116.47845,
            51.49828,
            1528.3
          ],
          [
            -116.47846,
            51.49828,
            1528.24
          ],
          [
            -116.47847,
            51.49828,
            1528.19
          ],
          [
            -116.4785,
            51.49826,
            1528.31
          ],
          [
            -116.47855,
            51.49823,
            1528.69
          ],
          [
            -116.47863,
            51.49819,
            1529.3
          ],
          [
            -116.47869,
            51.49814,
            1529.54
          ],
          [
            -116.47886,
            51.49805,
            1528.42
          ],
          [
            -116.47907,
            51.49792,
            1522.62
          ],
          [
            -116.47928,
            51.49781,
            1518.74
          ],
          [
            -116.4794,
            51.49773,
            1515.85
          ],
          [
            -116.47948,
            51.49767,
            1513.76
          ],
          [
            -116.47949,
            51.49765,
            1513.24
          ],
          [
            -116.47949,
            51.49764,
            1512.94
          ],
          [
            -116.4795,
            51.49761,
            1512.17
          ],
          [
            -116.4795,
            51.49758,
            1511.3
          ],
          [
            -116.47953,
            51.49752,
            1510.08
          ],
          [
            -116.47959,
            51.49745,
            1510.76
          ],
          [
            -116.47969,
            51.49735,
            1510.89
          ],
          [
            -116.47976,
            51.4973,
            1510.23
          ],
          [
            -116.4798,
            51.49726,
            1509.36
          ],
          [
            -116.47986,
            51.4972,
            1508.41
          ],
          [
            -116.48002,
            51.49709,
            1510.52
          ],
          [
            -116.48006,
            51.497,
            1512.95
          ],
          [
            -116.48009,
            51.49692,
            1513.59
          ],
          [
            -116.48011,
            51.49686,
            1511.84
          ],
          [
            -116.48012,
            51.49681,
            1510.35
          ],
          [
            -116.48014,
            51.4967,
            1507.02
          ],
          [
            -116.48015,
            51.49655,
            1507.49
          ],
          [
            -116.48016,
            51.49652,
            1507.89
          ],
          [
            -116.48018,
            51.4965,
            1508.19
          ],
          [
            -116.48021,
            51.49647,
            1508.66
          ],
          [
            -116.48038,
            51.49638,
            1508.78
          ],
          [
            -116.48047,
            51.49631,
            1506.98
          ],
          [
            -116.48049,
            51.49628,
            1506.44
          ],
          [
            -116.48052,
            51.49618,
            1505.03
          ],
          [
            -116.48054,
            51.4961,
            1504.15
          ],
          [
            -116.48056,
            51.49605,
            1504.19
          ],
          [
            -116.48058,
            51.49599,
            1504.26
          ],
          [
            -116.48061,
            51.49592,
            1504.3
          ],
          [
            -116.48065,
            51.49585,
            1504.26
          ],
          [
            -116.48069,
            51.49584,
            1504.01
          ],
          [
            -116.48076,
            51.49582,
            1503.75
          ],
          [
            -116.48088,
            51.49582,
            1502.94
          ],
          [
            -116.48114,
            51.49586,
            1500.79
          ],
          [
            -116.48124,
            51.4959,
            1500.07
          ],
          [
            -116.48131,
            51.49594,
            1499.57
          ],
          [
            -116.48144,
            51.49602,
            1498.57
          ],
          [
            -116.48153,
            51.49607,
            1497.91
          ],
          [
            -116.48159,
            51.4961,
            1497.52
          ],
          [
            -116.4816,
            51.4961,
            1497.45
          ],
          [
            -116.48166,
            51.49612,
            1497.14
          ],
          [
            -116.48175,
            51.49614,
            1496.98
          ],
          [
            -116.48194,
            51.49618,
            1496.52
          ],
          [
            -116.48205,
            51.49619,
            1496.08
          ],
          [
            -116.48211,
            51.49618,
            1495.75
          ],
          [
            -116.48216,
            51.49619,
            1495.57
          ],
          [
            -116.48221,
            51.49619,
            1495.34
          ],
          [
            -116.48225,
            51.4962,
            1495.39
          ],
          [
            -116.48228,
            51.49621,
            1495.48
          ],
          [
            -116.48228,
            51.49621,
            1495.48
          ],
          [
            -116.48229,
            51.49621,
            1495.5
          ],
          [
            -116.48231,
            51.49621,
            1495.54
          ],
          [
            -116.48234,
            51.49622,
            1495.58
          ],
          [
            -116.48237,
            51.49625,
            1495.5
          ],
          [
            -116.4824,
            51.49629,
            1495.28
          ],
          [
            -116.48243,
            51.49644,
            1495.42
          ],
          [
            -116.48247,
            51.49652,
            1496.58
          ],
          [
            -116.4825,
            51.49658,
            1497.44
          ],
          [
            -116.48251,
            51.49661,
            1497.95
          ],
          [
            -116.48251,
            51.49661,
            1497.95
          ],
          [
            -116.48252,
            51.49663,
            1498.28
          ],
          [
            -116.48254,
            51.49667,
            1498.85
          ],
          [
            -116.48257,
            51.49671,
            1498.67
          ],
          [
            -116.48259,
            51.49675,
            1498.57
          ],
          [
            -116.48262,
            51.4968,
            1498.5
          ],
          [
            -116.48266,
            51.49684,
            1498.52
          ],
          [
            -116.48274,
            51.49689,
            1498.72
          ],
          [
            -116.48279,
            51.49692,
            1499
          ],
          [
            -116.4828,
            51.49697,
            1499.15
          ],
          [
            -116.48279,
            51.49702,
            1499.06
          ],
          [
            -116.48277,
            51.49706,
            1499
          ],
          [
            -116.48275,
            51.49711,
            1499.02
          ],
          [
            -116.48275,
            51.49716,
            1499.06
          ],
          [
            -116.48277,
            51.49721,
            1499.03
          ],
          [
            -116.48282,
            51.49724,
            1498.67
          ],
          [
            -116.48289,
            51.49726,
            1498.71
          ],
          [
            -116.48296,
            51.49728,
            1499.18
          ],
          [
            -116.48304,
            51.49737,
            1501.3
          ]
        ]
      }
    }
  ]
}